1 08820U 76039A   03074.62772535  .00000007  00000-0  10000-3 0  9074
2 08820 109.8227 149.5733 0044466 321.3666  38.3911  6.38664664371085
